STARLINK-1275
1 25407C 20019AZ  21325.11129756 -.00023506  00000-0 -15753-2 0  3251
2 25407  53.0548 342.7252 0001715  55.3524  69.9870 15.06413847    19
